[{"OBJECT_NAME":"STARLINK-6178","OBJECT_ID":"2023-061P","EPOCH":"2026-03-09T22:00:01.999584","MEAN_MOTION":15.117437,"ECCENTRICITY":0.00016359,"INCLINATION":43.0005,"RA_OF_ASC_NODE":195.5801,"ARG_OF_PERICENTER":301.8014,"MEAN_ANOMALY":159.6262,"EPHEMERIS_TYPE":0,"CLASSIFICATION_TYPE":"U","NORAD_CAT_ID":56387,"ELEMENT_SET_NO":999,"REV_AT_EPOCH":578,"BSTAR":0.072717287,"MEAN_MOTION_DOT":0.0137484,"MEAN_MOTION_DDOT":0},{"OBJECT_NAME":"ALTAIR (RS65S)","OBJECT_ID":"2024-199AW","EPOCH":"2026-03-09T21:31:54.569568","MEAN_MOTION":15.34998047,"ECCENTRICITY":0.00120363,"INCLINATION":97.3179,"RA_OF_ASC_NODE":298.9542,"ARG_OF_PERICENTER":307.5319,"MEAN_ANOMALY":52.483,"EPHEMERIS_TYPE":0,"CLASSIFICATION_TYPE":"U","NORAD_CAT_ID":61779,"ELEMENT_SET_NO":999,"REV_AT_EPOCH":12187,"BSTAR":0.00027541775,"MEAN_MOTION_DOT":9.293e-5,"MEAN_MOTION_DDOT":0}]
